{
  "norad_id": 53985,
  "name": "STARLINK-5147",
  "history": [
    {
      "epoch": "2026-03-28T12:44:41.246880",
      "apogee_km": 540.796407366829,
      "perigee_km": 538.6731741568092,
      "latitude_deg": 52.92371147682238,
      "longitude_deg": -10.520836799871176,
      "semi_major_axis_km": 6917.871790761819,
      "eccentricity": 0.00015346,
      "inclination_deg": 53.2171,
      "raan_deg": 129.7722,
      "arg_perigee_deg": 94.0605,
      "mean_anomaly_deg": 266.0562,
      "mean_motion_rev_day": 15.08842813
    }
  ]
}