{"fetched_at":"2026-03-29T02:12:04Z","count":15717,"tles":[{"name":"STARLINK-5147","line1":"1 53985U 22125X   26087.53103295 -.00000093  00000+0  12253-4 0  9992","line2":"2 53985  53.2171 129.7722 0001534  94.0605 266.0562 15.08842813192300","category":"Starlink"}]}